{"fetched_at":"2026-07-15T06:35:39.467Z","source":"https://celestrak.org/NORAD/elements/gp.php?GROUP=qianfan&FORMAT=JSON","constellation":"qianfan","records":[{"OBJECT_NAME":"QIANFAN-65","OBJECT_ID":"2025-016L","EPOCH":"2026-07-14T22:06:46.577952","CLASSIFICATION_TYPE":"U","MEAN_MOTION":13.51029974,"ECCENTRICITY":0.00160242,"INCLINATION":88.9699,"RA_OF_ASC_NODE":80.8126,"ARG_OF_PERICENTER":83.4875,"MEAN_ANOMALY":276.81,"EPHEMERIS_TYPE":0,"NORAD_CAT_ID":62795,"ELEMENT_SET_NO":999,"REV_AT_EPOCH":7616,"BSTAR":0.00012852133,"MEAN_MOTION_DOT":9.5e-7,"MEAN_MOTION_DDOT":0},{"OBJECT_NAME":"QIANFAN-66","OBJECT_ID":"2025-016M","EPOCH":"2026-07-14T21:01:44.851584","CLASSIFICATION_TYPE":"U","MEAN_MOTION":13.5102317,"ECCENTRICITY":0.00171284,"INCLINATION":88.9719,"RA_OF_ASC_NODE":80.8294,"ARG_OF_PERICENTER":79.7957,"MEAN_ANOMALY":280.5125,"EPHEMERIS_TYPE":0,"NORAD_CAT_ID":62796,"ELEMENT_SET_NO":999,"REV_AT_EPOCH":7620,"BSTAR":0.00013305574,"MEAN_MOTION_DOT":9.8e-7,"MEAN_MOTION_DDOT":0},{"OBJECT_NAME":"QIANFAN-67","OBJECT_ID":"2025-016N","EPOCH":"2026-07-14T21:07:38.623296","CLASSIFICATION_TYPE":"U","MEAN_MOTION":13.51011793,"ECCENTRICITY":0.00170804,"INCLINATION":88.9709,"RA_OF_ASC_NODE":80.8336,"ARG_OF_PERICENTER":85.8501,"MEAN_ANOMALY":274.4602,"EPHEMERIS_TYPE":0,"NORAD_CAT_ID":62797,"ELEMENT_SET_NO":999,"REV_AT_EPOCH":7617,"BSTAR":0.00012068007,"MEAN_MOTION_DOT":9e-7,"MEAN_MOTION_DDOT":0},{"OBJECT_NAME":"QIANFAN-68","OBJECT_ID":"2025-016P","EPOCH":"2026-07-14T20:55:33.632256","CLASSIFICATION_TYPE":"U","MEAN_MOTION":13.51024542,"ECCENTRICITY":0.00171628,"INCLINATION":88.9713,"RA_OF_ASC_NODE":80.8872,"ARG_OF_PERICENTER":83.9781,"MEAN_ANOMALY":276.3326,"EPHEMERIS_TYPE":0,"NORAD_CAT_ID":62798,"ELEMENT_SET_NO":999,"REV_AT_EPOCH":7615,"BSTAR":0.00013578551,"MEAN_MOTION_DOT":0.000001,"MEAN_MOTION_DDOT":0},{"OBJECT_NAME":"QIANFAN-69","OBJECT_ID":"2025-016Q","EPOCH":"2026-07-14T21:19:14.590848","CLASSIFICATION_TYPE":"U","MEAN_MOTION":13.51018353,"ECCENTRICITY":0.00178947,"INCLINATION":88.9692,"RA_OF_ASC_NODE":80.7093,"ARG_OF_PERICENTER":85.2631,"MEAN_ANOMALY":275.0563,"EPHEMERIS_TYPE":0,"NORAD_CAT_ID":62799,"ELEMENT_SET_NO":999,"REV_AT_EPOCH":7619,"BSTAR":0.00013259652,"MEAN_MOTION_DOT":9.8e-7,"MEAN_MOTION_DDOT":0},{"OBJECT_NAME":"QIANFAN-70","OBJECT_ID":"2025-016R","EPOCH":"2026-07-14T21:43:02.906400","CLASSIFICATION_TYPE":"U","MEAN_MOTION":13.51016755,"ECCENTRICITY":0.00175149,"INCLINATION":88.9712,"RA_OF_ASC_NODE":80.8908,"ARG_OF_PERICENTER":76.7251,"MEAN_ANOMALY":283.5853,"EPHEMERIS_TYPE":0,"NORAD_CAT_ID":62800,"ELEMENT_SET_NO":999,"REV_AT_EPOCH":7615,"BSTAR":0.000137841,"MEAN_MOTION_DOT":0.00000101,"MEAN_MOTION_DDOT":0},{"OBJECT_NAME":"QIANFAN-71","OBJECT_ID":"2025-016S","EPOCH":"2026-07-14T21:37:18.257664","CLASSIFICATION_TYPE":"U","MEAN_MOTION":13.51011096,"ECCENTRICITY":0.00177888,"INCLINATION":88.9706,"RA_OF_ASC_NODE":80.8578,"ARG_OF_PERICENTER":88.3941,"MEAN_ANOMALY":271.9248,"EPHEMERIS_TYPE":0,"NORAD_CAT_ID":62801,"ELEMENT_SET_NO":999,"REV_AT_EPOCH":7615,"BSTAR":0.00014278651,"MEAN_MOTION_DOT":0.00000105,"MEAN_MOTION_DDOT":0},{"OBJECT_NAME":"QIANFAN-72","OBJECT_ID":"2025-016T","EPOCH":"2026-07-14T22:00:45.290304","CLASSIFICATION_TYPE":"U","MEAN_MOTION":13.51014232,"ECCENTRICITY":0.00209859,"INCLINATION":88.9697,"RA_OF_ASC_NODE":80.8485,"ARG_OF_PERICENTER":95.0574,"MEAN_ANOMALY":265.2973,"EPHEMERIS_TYPE":0,"NORAD_CAT_ID":62802,"ELEMENT_SET_NO":999,"REV_AT_EPOCH":7614,"BSTAR":0.00013008955,"MEAN_MOTION_DOT":9.6e-7,"MEAN_MOTION_DDOT":0},{"OBJECT_NAME":"QIANFAN-73","OBJECT_ID":"2025-046A","EPOCH":"2026-07-14T19:06:18.191232","CLASSIFICATION_TYPE":"U","MEAN_MOTION":13.51014785,"ECCENTRICITY":0.00140252,"INCLINATION":88.9723,"RA_OF_ASC_NODE":297.815,"ARG_OF_PERICENTER":216.8615,"MEAN_ANOMALY":143.1573,"EPHEMERIS_TYPE":0,"NORAD_CAT_ID":63159,"ELEMENT_SET_NO":999,"REV_AT_EPOCH":7631,"BSTAR":0.00015852526,"MEAN_MOTION_DOT":0.00000114,"MEAN_MOTION_DDOT":0},{"OBJECT_NAME":"QIANFAN-74","OBJECT_ID":"2025-046B","EPOCH":"2026-07-14T22:16:11.255520","CLASSIFICATION_TYPE":"U","MEAN_MOTION":13.51022602,"ECCENTRICITY":0.00025147,"INCLINATION":88.9724,"RA_OF_ASC_NODE":297.691,"ARG_OF_PERICENTER":106.0239,"MEAN_ANOMALY":254.1189,"EPHEMERIS_TYPE":0,"NORAD_CAT_ID":63160,"ELEMENT_SET_NO":999,"REV_AT_EPOCH":7639,"BSTAR":0.00013563355,"MEAN_MOTION_DOT":0.000001,"MEAN_MOTION_DDOT":0},{"OBJECT_NAME":"QIANFAN-75","OBJECT_ID":"2025-046C","EPOCH":"2026-07-14T21:58:17.779584","CLASSIFICATION_TYPE":"U","MEAN_MOTION":13.5101519,"ECCENTRICITY":0.00150045,"INCLINATION":88.9725,"RA_OF_ASC_NODE":297.9289,"ARG_OF_PERICENTER":220.3557,"MEAN_ANOMALY":139.6482,"EPHEMERIS_TYPE":0,"NORAD_CAT_ID":63161,"ELEMENT_SET_NO":999,"REV_AT_EPOCH":7626,"BSTAR":0.00014978592,"MEAN_MOTION_DOT":0.00000109,"MEAN_MOTION_DDOT":0},{"OBJECT_NAME":"QIANFAN-76","OBJECT_ID":"2025-046D","EPOCH":"2026-07-14T21:52:17.961600","CLASSIFICATION_TYPE":"U","MEAN_MOTION":13.51013845,"ECCENTRICITY":0.00125509,"INCLINATION":88.9725,"RA_OF_ASC_NODE":297.9092,"ARG_OF_PERICENTER":219.4429,"MEAN_ANOMALY":140.5809,"EPHEMERIS_TYPE":0,"NORAD_CAT_ID":63162,"ELEMENT_SET_NO":999,"REV_AT_EPOCH":7627,"BSTAR":0.00016867863,"MEAN_MOTION_DOT":0.00000121,"MEAN_MOTION_DDOT":0},{"OBJECT_NAME":"QIANFAN-77","OBJECT_ID":"2025-046E","EPOCH":"2026-07-14T21:42:19.396224","CLASSIFICATION_TYPE":"U","MEAN_MOTION":13.96221381,"ECCENTRICITY":0.0017082,"INCLINATION":88.9727,"RA_OF_ASC_NODE":294.1529,"ARG_OF_PERICENTER":128.333,"MEAN_ANOMALY":231.9385,"EPHEMERIS_TYPE":0,"NORAD_CAT_ID":63163,"ELEMENT_SET_NO":999,"REV_AT_EPOCH":7833,"BSTAR":0.00014638361,"MEAN_MOTION_DOT":0.00000215,"MEAN_MOTION_DDOT":0},{"OBJECT_NAME":"QIANFAN-78","OBJECT_ID":"2025-046F","EPOCH":"2026-07-14T21:04:58.016064","CLASSIFICATION_TYPE":"U","MEAN_MOTION":13.51009194,"ECCENTRICITY":0.00138358,"INCLINATION":88.9724,"RA_OF_ASC_NODE":297.7745,"ARG_OF_PERICENTER":222.6424,"MEAN_ANOMALY":137.3654,"EPHEMERIS_TYPE":0,"NORAD_CAT_ID":63164,"ELEMENT_SET_NO":999,"REV_AT_EPOCH":7634,"BSTAR":0.00014603576,"MEAN_MOTION_DOT":0.00000106,"MEAN_MOTION_DDOT":0},{"OBJECT_NAME":"QIANFAN-79","OBJECT_ID":"2025-046G","EPOCH":"2026-07-14T21:46:22.893888","CLASSIFICATION_TYPE":"U","MEAN_MOTION":13.51019388,"ECCENTRICITY":0.00136834,"INCLINATION":88.9727,"RA_OF_ASC_NODE":297.8868,"ARG_OF_PERICENTER":220.8603,"MEAN_ANOMALY":139.1523,"EPHEMERIS_TYPE":0,"NORAD_CAT_ID":63165,"ELEMENT_SET_NO":999,"REV_AT_EPOCH":7629,"BSTAR":0.00015701195,"MEAN_MOTION_DOT":0.00000113,"MEAN_MOTION_DDOT":0},{"OBJECT_NAME":"QIANFAN-80","OBJECT_ID":"2025-046H","EPOCH":"2026-07-14T22:10:12.731808","CLASSIFICATION_TYPE":"U","MEAN_MOTION":13.51016534,"ECCENTRICITY":0.0012374,"INCLINATION":88.9724,"RA_OF_ASC_NODE":297.5862,"ARG_OF_PERICENTER":224.9026,"MEAN_ANOMALY":135.1125,"EPHEMERIS_TYPE":0,"NORAD_CAT_ID":63166,"ELEMENT_SET_NO":999,"REV_AT_EPOCH":7645,"BSTAR":0.00014479736,"MEAN_MOTION_DOT":0.00000106,"MEAN_MOTION_DDOT":0}]}
