QIANFAN-65              
1 62795U 25016L   26195.92137243  .00000095  00000+0  12852-3 0  9991
2 62795  88.9699  80.8126 0016024  83.4875 276.8100 13.51029974 76168
QIANFAN-66              
1 62796U 25016M   26195.87621356  .00000098  00000+0  13306-3 0  9997
2 62796  88.9719  80.8294 0017128  79.7957 280.5125 13.51023170 76209
QIANFAN-67              
1 62797U 25016N   26195.88030814  .00000090  00000+0  12068-3 0  9998
2 62797  88.9709  80.8336 0017080  85.8501 274.4602 13.51011793 76172
QIANFAN-68              
1 62798U 25016P   26195.87191704  .00000100  00000+0  13579-3 0  9994
2 62798  88.9713  80.8872 0017162  83.9781 276.3326 13.51024542 76151
QIANFAN-69              
1 62799U 25016Q   26195.88836332  .00000098  00000+0  13260-3 0  9992
2 62799  88.9692  80.7093 0017894  85.2631 275.0563 13.51018353 76199
QIANFAN-70              
1 62800U 25016R   26195.90489475  .00000101  00000+0  13784-3 0  9996
2 62800  88.9712  80.8908 0017514  76.7251 283.5853 13.51016755 76159
QIANFAN-71              
1 62801U 25016S   26195.90090576  .00000105  00000+0  14279-3 0  9991
2 62801  88.9706  80.8578 0017788  88.3941 271.9248 13.51011096 76156
QIANFAN-72              
1 62802U 25016T   26195.91719086  .00000096  00000+0  13009-3 0  9996
2 62802  88.9697  80.8485 0020985  95.0574 265.2973 13.51014232 76148
QIANFAN-73              
1 63159U 25046A   26195.79604388  .00000114  00000+0  15853-3 0  9999
2 63159  88.9723 297.8150 0014025 216.8615 143.1573 13.51014785 76312
QIANFAN-74              
1 63160U 25046B   26195.92790805  .00000100  00000+0  13563-3 0  9997
2 63160  88.9724 297.6910 0002514 106.0239 254.1189 13.51022602 76390
QIANFAN-75              
1 63161U 25046C   26195.91548356  .00000109  00000+0  14979-3 0  9990
2 63161  88.9725 297.9289 0015004 220.3557 139.6482 13.51015190 76268
QIANFAN-76              
1 63162U 25046D   26195.91131900  .00000121  00000+0  16868-3 0  9997
2 63162  88.9725 297.9092 0012550 219.4429 140.5809 13.51013845 76271
QIANFAN-77              
1 63163U 25046E   26195.90439116  .00000215  00000+0  14638-3 0  9994
2 63163  88.9727 294.1529 0017082 128.3330 231.9385 13.96221381 78330
QIANFAN-78              
1 63164U 25046F   26195.87844926  .00000106  00000+0  14604-3 0  9992
2 63164  88.9724 297.7745 0013835 222.6424 137.3654 13.51009194 76345
QIANFAN-79              
1 63165U 25046G   26195.90720942  .00000113  00000+0  15701-3 0  9995
2 63165  88.9727 297.8868 0013683 220.8603 139.1523 13.51019388 76291
QIANFAN-80              
1 63166U 25046H   26195.92375847  .00000106  00000+0  14480-3 0  9993
2 63166  88.9724 297.5862 0012374 224.9026 135.1125 13.51016534 76452
